{
  "type": "FeatureCollection",
  "features": [
    {
      "type": "Feature",
      "properties": {
        "norad_id": 66909,
        "name": "SILVERSAT",
        "group": "stations",
        "lat": -16.890647809925838,
        "lon": 138.1400297258984,
        "alt_km": 417.60118970995245,
        "timestamp": "2025-12-10T18:56:58.849386+00:00",
        "meta_object_name": "SILVERSAT",
        "meta_object_id": "1998-067XV",
        "meta_epoch": "2025-12-09T19:50:59.696448",
        "meta_mean_motion": 15.51056405,
        "meta_eccentricity": 0.00048767,
        "meta_inclination": 51.6304,
        "meta_ra_of_asc_node": 156.8402,
        "meta_arg_of_pericenter": 210.6196,
        "meta_mean_anomaly": 149.451,
        "meta_ephemeris_type": 0,
        "meta_classification_type": "U",
        "meta_norad_cat_id": 66909,
        "meta_element_set_no": 999,
        "meta_rev_at_epoch": 116,
        "meta_bstar": 0.001540003,
        "meta_mean_motion_dot": 0.00091886,
        "meta_mean_motion_ddot": 0,
        "tle_line1": "1 66909U 98067XV  25343.82707982  .00091886  00000+0  15400-2 0  9993",
        "tle_line2": "2 66909  51.6304 156.8402 0004876 210.6196 149.4510 15.51056405  1161"
      },
      "geometry": {
        "type": "Point",
        "coordinates": [
          138.1400297258984,
          -16.890647809925838
        ]
      }
    },
    {
      "type": "Feature",
      "properties": {
        "norad_id": 66910,
        "name": "1998-067XW",
        "group": "stations",
        "lat": -11.271858237158648,
        "lon": 142.96200536727352,
        "alt_km": 417.8641642658622,
        "timestamp": "2025-12-10T18:56:58.849398+00:00",
        "meta_object_name": "1998-067XW",
        "meta_object_id": "1998-067XW",
        "meta_epoch": "2025-12-10T11:16:54.562944",
        "meta_mean_motion": 15.51350337,
        "meta_eccentricity": 0.0005542,
        "meta_inclination": 51.6299,
        "meta_ra_of_asc_node": 153.635,
        "meta_arg_of_pericenter": 197.1967,
        "meta_mean_anomaly": 162.8836,
        "meta_ephemeris_type": 0,
        "meta_classification_type": "U",
        "meta_norad_cat_id": 66910,
        "meta_element_set_no": 999,
        "meta_rev_at_epoch": 126,
        "meta_bstar": 0.0013818,
        "meta_mean_motion_dot": 0.00083191,
        "meta_mean_motion_ddot": 0,
        "tle_line1": "1 66910U 98067XW  25344.47007596  .00083191  00000+0  13818-2 0  9992",
        "tle_line2": "2 66910  51.6299 153.6350 0005542 197.1967 162.8836 15.51350337  1261"
      },
      "geometry": {
        "type": "Point",
        "coordinates": [
          142.96200536727352,
          -11.271858237158648
        ]
      }
    },
    {
      "type": "Feature",
      "properties": {
        "norad_id": 66911,
        "name": "1998-067XX",
        "group": "stations",
        "lat": -9.426494797090669,
        "lon": 144.48098487146152,
        "alt_km": 417.3757992575729,
        "timestamp": "2025-12-10T18:56:58.849409+00:00",
        "meta_object_name": "1998-067XX",
        "meta_object_id": "1998-067XX",
        "meta_epoch": "2025-12-09T02:48:25.040736",
        "meta_mean_motion": 15.51276485,
        "meta_eccentricity": 0.00057034,
        "meta_inclination": 51.6296,
        "meta_ra_of_asc_node": 160.3494,
        "meta_arg_of_pericenter": 191.2268,
        "meta_mean_anomaly": 168.8595,
        "meta_ephemeris_type": 0,
        "meta_classification_type": "U",
        "meta_norad_cat_id": 66911,
        "meta_element_set_no": 999,
        "meta_rev_at_epoch": 104,
        "meta_bstar": 0.0014245982,
        "meta_mean_motion_dot": 0.00085582,
        "meta_mean_motion_ddot": 0,
        "tle_line1": "1 66911U 98067XX  25343.11695649  .00085582  00000+0  14246-2 0  9997",
        "tle_line2": "2 66911  51.6296 160.3494 0005703 191.2268 168.8595 15.51276485  1046"
      },
      "geometry": {
        "type": "Point",
        "coordinates": [
          144.48098487146152,
          -9.426494797090669
        ]
      }
    },
    {
      "type": "Feature",
      "properties": {
        "norad_id": 66912,
        "name": "1998-067XY",
        "group": "stations",
        "lat": -21.552068406300883,
        "lon": 133.83587577355746,
        "alt_km": 419.1792772722674,
        "timestamp": "2025-12-10T18:56:58.849419+00:00",
        "meta_object_name": "1998-067XY",
        "meta_object_id": "1998-067XY",
        "meta_epoch": "2025-12-08T19:07:24.168000",
        "meta_mean_motion": 15.50590071,
        "meta_eccentricity": 0.00050436,
        "meta_inclination": 51.6301,
        "meta_ra_of_asc_node": 161.961,
        "meta_arg_of_pericenter": 202.8278,
        "meta_mean_anomaly": 157.2488,
        "meta_ephemeris_type": 0,
        "meta_classification_type": "U",
        "meta_norad_cat_id": 66912,
        "meta_element_set_no": 999,
        "meta_rev_at_epoch": 99,
        "meta_bstar": 0.0009627216,
        "meta_mean_motion_dot": 0.00056065,
        "meta_mean_motion_ddot": 0,
        "tle_line1": "1 66912U 98067XY  25342.79680750  .00056065  00000+0  96272-3 0  9992",
        "tle_line2": "2 66912  51.6301 161.9610 0005043 202.8278 157.2488 15.50590071   993"
      },
      "geometry": {
        "type": "Point",
        "coordinates": [
          133.83587577355746,
          -21.552068406300883
        ]
      }
    }
  ]
}